*******************************************************************************
Ephemeris / WWW_USER Mon Mar 24 07:21:22 2025 Pasadena, USA      / Horizons    
*******************************************************************************
Target body name: (2018 PM20)                     {source: JPL#2}
Center body name: Earth (399)                     {source: DE441}
Center-site name: Mauna Kea
*******************************************************************************
Start time      : A.D. 2018-Nov-28 03:51:00.0000 UT      
Stop  time      : A.D. 2018-Nov-28 16:28:00.0000 UT      
Step-size       : 1 minutes
*******************************************************************************
Target pole/equ : undefined
Target radii    : undefined                                                    
Center geodetic : 204.5278, 19.8260847, 4.21024   {E-lon(deg),Lat(deg),Alt(km)}
Center cylindric: 204.5278, 6006.35451, 2151.0229 {E-lon(deg),Dxy(km),Dz(km)}
Center pole/equ : ITRF93                          {East-longitude positive}
Center radii    : 6378.137, 6378.137, 6356.752 km {Equator_a, b, pole_c}       
Target primary  : Sun
Vis. interferer : MOON (R_eq= 1737.400) km        {source: DE441}
Rel. light bend : Sun                             {source: DE441}
Rel. lght bnd GM: 1.3271E+11 km^3/s^2                                          
Small-body perts: Yes                             {source: SB441-N16}
Atmos refraction: NO (AIRLESS)
RA format       : HMS
Time format     : CAL 
Calendar mode   : Mixed Julian/Gregorian
RTS-only print  : NO       
EOP file        : eop.250321.p250617                                           
EOP coverage    : DATA-BASED 1962-JAN-20 TO 2025-MAR-21. PREDICTS-> 2025-JUN-16
Units conversion: 1 au= 149597870.700 km, c= 299792.458 km/s, 1 day= 86400.0 s 
Table cut-offs 1: Elevation (-90.0deg=NO ),Airmass (>38.000=NO), Daylight (YES)
Table cut-offs 2: Solar elongation (  0.0,180.0=NO ),Local Hour Angle( 0.0=NO )
Table cut-offs 3: RA/DEC angular rate (     0.0=NO )                           
*******************************************************************************
Initial IAU76/J2000 heliocentric ecliptic osculating elements (au, days, deg.):
  EPOCH=  2458343.5 ! 2018-Aug-13.00 (TDB)         Residual RMS= .089003       
   EC= .5103595829140648   QR= .9783824475456468   TP= 2458372.5495769856      
   OM= 141.729241004527    W=  213.3086535448706   IN= 3.923256746335003       
  Equivalent ICRF heliocentric cartesian coordinates (au, au/d):
   X= 8.000585561647119E-01  Y=-6.125483166279821E-01  Z=-2.634816273742420E-01
  VX= 9.656077190407949E-03 VY= 1.708944028933422E-02 VZ= 5.904161592396531E-03
Asteroid physical parameters (km, seconds, rotational period in hours):        
   GM= n.a.                RAD= n.a.               ROTPER= n.a.                
   H= 26.3                 G= .150                 B-V= n.a.                   
                           ALBEDO= n.a.            STYP= n.a.                  
*******************************************************************************
 Date__(UT)__HR:MN     R.A._________(ICRF)_________DEC
******************************************************
$$SOE
 2018-Nov-28 05:54     06 12 57.814550 +10 42 29.69341
 2018-Nov-28 05:55     06 12 57.733717 +10 42 30.05096
 2018-Nov-28 05:56     06 12 57.652856 +10 42 30.40851
 2018-Nov-28 05:57     06 12 57.571967 +10 42 30.76607
 2018-Nov-28 05:58     06 12 57.491049 +10 42 31.12364
 2018-Nov-28 05:59     06 12 57.410103 +10 42 31.48121
 2018-Nov-28 06:00     06 12 57.329129 +10 42 31.83879
 2018-Nov-28 06:01     06 12 57.248127 +10 42 32.19637
 2018-Nov-28 06:02     06 12 57.167096 +10 42 32.55396
 2018-Nov-28 06:03     06 12 57.086037 +10 42 32.91155
 2018-Nov-28 06:04     06 12 57.004950 +10 42 33.26915
 2018-Nov-28 06:05     06 12 56.923834 +10 42 33.62675
 2018-Nov-28 06:06     06 12 56.842690 +10 42 33.98435
 2018-Nov-28 06:07     06 12 56.761518 +10 42 34.34196
 2018-Nov-28 06:08     06 12 56.680317 +10 42 34.69957
 2018-Nov-28 06:09     06 12 56.599088 +10 42 35.05718
 2018-Nov-28 06:10     06 12 56.517831 +10 42 35.41480
 2018-Nov-28 06:11     06 12 56.436545 +10 42 35.77241
 2018-Nov-28 06:12     06 12 56.355231 +10 42 36.13003
 2018-Nov-28 06:13     06 12 56.273889 +10 42 36.48765
 2018-Nov-28 06:14     06 12 56.192519 +10 42 36.84527
 2018-Nov-28 06:15     06 12 56.111120 +10 42 37.20289
 2018-Nov-28 06:16     06 12 56.029693 +10 42 37.56051
 2018-Nov-28 06:17     06 12 55.948238 +10 42 37.91813
 2018-Nov-28 06:18     06 12 55.866754 +10 42 38.27574
 2018-Nov-28 06:19     06 12 55.785242 +10 42 38.63336
 2018-Nov-28 06:20     06 12 55.703702 +10 42 38.99098
 2018-Nov-28 06:21     06 12 55.622134 +10 42 39.34859
 2018-Nov-28 06:22     06 12 55.540537 +10 42 39.70621
 2018-Nov-28 06:23     06 12 55.458912 +10 42 40.06382
 2018-Nov-28 06:24     06 12 55.377259 +10 42 40.42143
 2018-Nov-28 06:25     06 12 55.295578 +10 42 40.77903
 2018-Nov-28 06:26     06 12 55.213868 +10 42 41.13664
 2018-Nov-28 06:27     06 12 55.132131 +10 42 41.49423
 2018-Nov-28 06:28     06 12 55.050365 +10 42 41.85183
 2018-Nov-28 06:29     06 12 54.968571 +10 42 42.20942
 2018-Nov-28 06:30     06 12 54.886748 +10 42 42.56701
 2018-Nov-28 06:31     06 12 54.804898 +10 42 42.92459
 2018-Nov-28 06:32     06 12 54.723019 +10 42 43.28216
 2018-Nov-28 06:33     06 12 54.641113 +10 42 43.63973
 2018-Nov-28 06:34     06 12 54.559178 +10 42 43.99730
 2018-Nov-28 06:35     06 12 54.477215 +10 42 44.35485
 2018-Nov-28 06:36     06 12 54.395224 +10 42 44.71241
 2018-Nov-28 06:37     06 12 54.313205 +10 42 45.06995
 2018-Nov-28 06:38     06 12 54.231157 +10 42 45.42749
 2018-Nov-28 06:39     06 12 54.149082 +10 42 45.78502
 2018-Nov-28 06:40     06 12 54.066979 +10 42 46.14254
 2018-Nov-28 06:41     06 12 53.984848 +10 42 46.50005
 2018-Nov-28 06:42     06 12 53.902688 +10 42 46.85756
 2018-Nov-28 06:43     06 12 53.820501 +10 42 47.21505
 2018-Nov-28 06:44     06 12 53.738286 +10 42 47.57254
 2018-Nov-28 06:45     06 12 53.656043 +10 42 47.93002
 2018-Nov-28 06:46     06 12 53.573772 +10 42 48.28749
 2018-Nov-28 06:47     06 12 53.491473 +10 42 48.64494
 2018-Nov-28 06:48     06 12 53.409146 +10 42 49.00239
 2018-Nov-28 06:49     06 12 53.326792 +10 42 49.35983
 2018-Nov-28 06:50     06 12 53.244409 +10 42 49.71725
 2018-Nov-28 06:51     06 12 53.161999 +10 42 50.07466
 2018-Nov-28 06:52     06 12 53.079561 +10 42 50.43206
 2018-Nov-28 06:53     06 12 52.997095 +10 42 50.78945
 2018-Nov-28 06:54     06 12 52.914602 +10 42 51.14683
 2018-Nov-28 06:55     06 12 52.832081 +10 42 51.50419
 2018-Nov-28 06:56     06 12 52.749532 +10 42 51.86154
 2018-Nov-28 06:57     06 12 52.666955 +10 42 52.21888
 2018-Nov-28 06:58     06 12 52.584351 +10 42 52.57620
 2018-Nov-28 06:59     06 12 52.501719 +10 42 52.93351
 2018-Nov-28 07:00     06 12 52.419060 +10 42 53.29081
 2018-Nov-28 07:01     06 12 52.336373 +10 42 53.64809
 2018-Nov-28 07:02     06 12 52.253659 +10 42 54.00535
 2018-Nov-28 07:03     06 12 52.170917 +10 42 54.36260
 2018-Nov-28 07:04     06 12 52.088148 +10 42 54.71983
 2018-Nov-28 07:05     06 12 52.005351 +10 42 55.07705
 2018-Nov-28 07:06     06 12 51.922527 +10 42 55.43425
 2018-Nov-28 07:07     06 12 51.839676 +10 42 55.79143
 2018-Nov-28 07:08     06 12 51.756797 +10 42 56.14860
 2018-Nov-28 07:09     06 12 51.673891 +10 42 56.50575
 2018-Nov-28 07:10     06 12 51.590957 +10 42 56.86288
 2018-Nov-28 07:11     06 12 51.507997 +10 42 57.21999
 2018-Nov-28 07:12     06 12 51.425009 +10 42 57.57709
 2018-Nov-28 07:13     06 12 51.341994 +10 42 57.93416
 2018-Nov-28 07:14     06 12 51.258952 +10 42 58.29122
 2018-Nov-28 07:15     06 12 51.175883 +10 42 58.64826
 2018-Nov-28 07:16     06 12 51.092787 +10 42 59.00528
 2018-Nov-28 07:17     06 12 51.009664 +10 42 59.36228
 2018-Nov-28 07:18     06 12 50.926514 +10 42 59.71925
 2018-Nov-28 07:19     06 12 50.843336 +10 43 00.07621
 2018-Nov-28 07:20     06 12 50.760132 +10 43 00.43315
 2018-Nov-28 07:21     06 12 50.676902 +10 43 00.79006
 2018-Nov-28 07:22     06 12 50.593644 +10 43 01.14696
 2018-Nov-28 07:23     06 12 50.510359 +10 43 01.50383
 2018-Nov-28 07:24     06 12 50.427048 +10 43 01.86068
 2018-Nov-28 07:25     06 12 50.343710 +10 43 02.21750
 2018-Nov-28 07:26     06 12 50.260346 +10 43 02.57431
 2018-Nov-28 07:27     06 12 50.176954 +10 43 02.93109
 2018-Nov-28 07:28     06 12 50.093536 +10 43 03.28785
 2018-Nov-28 07:29     06 12 50.010092 +10 43 03.64458
 2018-Nov-28 07:30     06 12 49.926621 +10 43 04.00129
 2018-Nov-28 07:31     06 12 49.843124 +10 43 04.35797
 2018-Nov-28 07:32     06 12 49.759600 +10 43 04.71464
 2018-Nov-28 07:33     06 12 49.676050 +10 43 05.07127
 2018-Nov-28 07:34     06 12 49.592474 +10 43 05.42788
 2018-Nov-28 07:35     06 12 49.508871 +10 43 05.78446
 2018-Nov-28 07:36     06 12 49.425242 +10 43 06.14102
 2018-Nov-28 07:37     06 12 49.341587 +10 43 06.49755
 2018-Nov-28 07:38     06 12 49.257906 +10 43 06.85406
 2018-Nov-28 07:39     06 12 49.174199 +10 43 07.21054
 2018-Nov-28 07:40     06 12 49.090465 +10 43 07.56699
 2018-Nov-28 07:41     06 12 49.006706 +10 43 07.92341
 2018-Nov-28 07:42     06 12 48.922921 +10 43 08.27981
 2018-Nov-28 07:43     06 12 48.839110 +10 43 08.63618
 2018-Nov-28 07:44     06 12 48.755273 +10 43 08.99252
 2018-Nov-28 07:45     06 12 48.671410 +10 43 09.34883
 2018-Nov-28 07:46     06 12 48.587521 +10 43 09.70511
 2018-Nov-28 07:47     06 12 48.503607 +10 43 10.06136
 2018-Nov-28 07:48     06 12 48.419667 +10 43 10.41758
 2018-Nov-28 07:49     06 12 48.335702 +10 43 10.77378
 2018-Nov-28 07:50     06 12 48.251711 +10 43 11.12994
 2018-Nov-28 07:51     06 12 48.167695 +10 43 11.48607
 2018-Nov-28 07:52     06 12 48.083653 +10 43 11.84217
 2018-Nov-28 07:53     06 12 47.999586 +10 43 12.19824
 2018-Nov-28 07:54     06 12 47.915493 +10 43 12.55428
 2018-Nov-28 07:55     06 12 47.831376 +10 43 12.91029
 2018-Nov-28 07:56     06 12 47.747233 +10 43 13.26626
